[{"OBJECT_NAME":"COSMOS 2576","OBJECT_ID":"2024-092A","EPOCH":"2026-03-09T19:49:29.705664","MEAN_MOTION":15.27760963,"ECCENTRICITY":0.0005946,"INCLINATION":97.4253,"RA_OF_ASC_NODE":186.0053,"ARG_OF_PERICENTER":159.7731,"MEAN_ANOMALY":200.3745,"EPHEMERIS_TYPE":0,"CLASSIFICATION_TYPE":"U","NORAD_CAT_ID":59773,"ELEMENT_SET_NO":999,"REV_AT_EPOCH":10127,"BSTAR":0.00056283,"MEAN_MOTION_DOT":0.00015211,"MEAN_MOTION_DDOT":0},{"OBJECT_NAME":"STARLINK-32571","OBJECT_ID":"2024-216Z","EPOCH":"2026-03-09T21:33:17.304480","MEAN_MOTION":15.27583043,"ECCENTRICITY":0.00013905,"INCLINATION":43.0016,"RA_OF_ASC_NODE":254.6165,"ARG_OF_PERICENTER":264.9579,"MEAN_ANOMALY":95.1114,"EPHEMERIS_TYPE":0,"CLASSIFICATION_TYPE":"U","NORAD_CAT_ID":62055,"ELEMENT_SET_NO":999,"REV_AT_EPOCH":7401,"BSTAR":0.0009845796,"MEAN_MOTION_DOT":0.00026933,"MEAN_MOTION_DDOT":0}]
